start=new Date('2022-03-28T00:00:00.000Z').valueOf();
sats=[{"CLASSIFICATION_TYPE":"U","ELEMENT_SET_NO":"999","MEAN_ELEMENT_THEORY":"SGP4","PERIOD":"95.438","MEAN_MOTION_DOT":"0.00049746","PERIAPSIS":"538.494","ECCENTRICITY":"0.00018720","RA_OF_ASC_NODE":"255.9858","REF_FRAME":"TEME","REV_AT_EPOCH":"359","OBJECT_NAME":"STARLINK-3297","INCLINATION":"53.2171","MEAN_MOTION":"15.08825568","GP_ID":"199865623","CENTER_NAME":"EARTH","COUNTRY_CODE":"US","OBJECT_TYPE":"PAYLOAD","LAUNCH_DATE":"2021-12-18","ARG_OF_PERICENTER":"45.3319","FILE":"3377053","OBJECT_ID":"2021-125D","NORAD_CAT_ID":"50159","TIME_SYSTEM":"UTC","EPOCH":"2022-03-27T22:00:01.999584","RCS_SIZE":"LARGE","EPHEMERIS_TYPE":"0","APOAPSIS":"541.085","SITE":"AFWTR","MEAN_MOTION_DDOT":"0.0000000000000","TLE_LINE1":"1 50159U 21125D   22086.91668981  .00049746  00000-0  31230-2 0  9998","TLE_LINE2":"2 50159  53.2171 255.9858 0001872  45.3319 299.8692 15.08825568  3596","MEAN_ANOMALY":"299.8692","SEMIMAJOR_AXIS":"6917.925","BSTAR":"0.00312300000000","DECAY_DATE":null},{"GP_ID":"199865860","MEAN_MOTION":"15.08814385","INCLINATION":"53.2167","COUNTRY_CODE":"US","CENTER_NAME":"EARTH","MEAN_MOTION_DOT":"0.00051477","PERIOD":"95.439","MEAN_ELEMENT_THEORY":"SGP4","ELEMENT_SET_NO":"999","REV_AT_EPOCH":"359","OBJECT_NAME":"STARLINK-3288","RA_OF_ASC_NODE":"255.9889","PERIAPSIS":"538.441","ECCENTRICITY":"0.00019990","REF_FRAME":"TEME","CLASSIFICATION_TYPE":"U","MEAN_MOTION_DDOT":"0.0000000000000","DECAY_DATE":null,"BSTAR":"0.00323120000000","SEMIMAJOR_AXIS":"6917.959","TLE_LINE2":"2 50160  53.2167 255.9889 0001999  38.8187 266.3383 15.08814385  3598","MEAN_ANOMALY":"266.3383","TLE_LINE1":"1 50160U 21125E   22086.91668981  .00051477  00000-0  32312-2 0  9996","EPHEMERIS_TYPE":"0","APOAPSIS":"541.207","SITE":"AFWTR","OBJECT_ID":"2021-125E","EPOCH":"2022-03-27T22:00:01.999584","RCS_SIZE":"LARGE","TIME_SYSTEM":"UTC","NORAD_CAT_ID":"50160","LAUNCH_DATE":"2021-12-18","OBJECT_TYPE":"PAYLOAD","ARG_OF_PERICENTER":"38.8187","FILE":"3377053"},{"CLASSIFICATION_TYPE":"U","OBJECT_NAME":"STARLINK-3304","REV_AT_EPOCH":"360","REF_FRAME":"TEME","PERIAPSIS":"538.420","RA_OF_ASC_NODE":"255.9893","ECCENTRICITY":"0.00020420","PERIOD":"95.439","MEAN_ELEMENT_THEORY":"SGP4","ELEMENT_SET_NO":"999","MEAN_MOTION_DOT":"0.00039196","COUNTRY_CODE":"US","CENTER_NAME":"EARTH","INCLINATION":"53.2164","GP_ID":"199864622","MEAN_MOTION":"15.08811421","ARG_OF_PERICENTER":"45.8694","FILE":"3377053","OBJECT_TYPE":"PAYLOAD","LAUNCH_DATE":"2021-12-18","TIME_SYSTEM":"UTC","NORAD_CAT_ID":"50161","EPOCH":"2022-03-27T22:00:01.999584","RCS_SIZE":"LARGE","OBJECT_ID":"2021-125F","SITE":"AFWTR","APOAPSIS":"541.245","EPHEMERIS_TYPE":"0","SEMIMAJOR_AXIS":"6917.968","TLE_LINE2":"2 50161  53.2164 255.9893 0002042  45.8694 239.3768 15.08811421  3609","TLE_LINE1":"1 50161U 21125F   22086.91668981  .00039196  00000-0  24691-2 0  9992","MEAN_ANOMALY":"239.3768","DECAY_DATE":null,"BSTAR":"0.00246910000000","MEAN_MOTION_DDOT":"0.0000000000000"},{"SITE":"AFWTR","APOAPSIS":"306.952","EPHEMERIS_TYPE":"0","SEMIMAJOR_AXIS":"6683.913","TLE_LINE2":"2 50162  53.2128 229.2985 0001757 269.2058 112.5071 15.88753677  3722","TLE_LINE1":"1 50162U 21125G   22086.91668981  .00171243  00000-0  58552-3 0  9997","MEAN_ANOMALY":"112.5071","DECAY_DATE":null,"BSTAR":"0.00058552000000","MEAN_MOTION_DDOT":"0.0000000000000","FILE":"3377053","ARG_OF_PERICENTER":"269.2058","OBJECT_TYPE":"PAYLOAD","LAUNCH_DATE":"2021-12-18","TIME_SYSTEM":"UTC","NORAD_CAT_ID":"50162","EPOCH":"2022-03-27T22:00:01.999584","RCS_SIZE":"LARGE","OBJECT_ID":"2021-125G","OBJECT_NAME":"STARLINK-3303","REV_AT_EPOCH":"372","PERIAPSIS":"304.604","RA_OF_ASC_NODE":"229.2985","REF_FRAME":"TEME","ECCENTRICITY":"0.00017570","PERIOD":"90.637","MEAN_ELEMENT_THEORY":"SGP4","ELEMENT_SET_NO":"999","MEAN_MOTION_DOT":"0.00171243","COUNTRY_CODE":"US","CENTER_NAME":"EARTH","INCLINATION":"53.2128","GP_ID":"199864872","MEAN_MOTION":"15.88753677","CLASSIFICATION_TYPE":"U"},{"OBJECT_ID":"2021-125H","RCS_SIZE":"LARGE","EPOCH":"2022-03-27T22:00:01.999584","TIME_SYSTEM":"UTC","NORAD_CAT_ID":"50163","LAUNCH_DATE":"2021-12-18","OBJECT_TYPE":"PAYLOAD","FILE":"3377053","ARG_OF_PERICENTER":"43.5612","MEAN_MOTION_DDOT":"0.0000000000000","DECAY_DATE":null,"BSTAR":"-0.00794670000000","SEMIMAJOR_AXIS":"6827.846","TLE_LINE2":"2 50163  53.2172 241.0939 0001676  43.5612 233.2722 15.38782290  3667","MEAN_ANOMALY":"233.2722","TLE_LINE1":"1 50163U 21125H   22086.91668981 -.00297853  00000-0 -79467-2 0  9993","EPHEMERIS_TYPE":"0","APOAPSIS":"450.855","SITE":"AFWTR","CLASSIFICATION_TYPE":"U","GP_ID":"199865124","MEAN_MOTION":"15.38782290","INCLINATION":"53.2172","COUNTRY_CODE":"US","CENTER_NAME":"EARTH","MEAN_MOTION_DOT":"-0.00297853","MEAN_ELEMENT_THEORY":"SGP4","PERIOD":"93.580","ELEMENT_SET_NO":"999","OBJECT_NAME":"STARLINK-3306","REV_AT_EPOCH":"366","RA_OF_ASC_NODE":"241.0939","PERIAPSIS":"448.567","ECCENTRICITY":"0.00016760","REF_FRAME":"TEME"},{"CLASSIFICATION_TYPE":"U","INCLINATION":"53.2112","MEAN_MOTION":"15.76704182","GP_ID":"199865361","CENTER_NAME":"EARTH","COUNTRY_CODE":"US","ELEMENT_SET_NO":"999","PERIOD":"91.330","MEAN_ELEMENT_THEORY":"SGP4","MEAN_MOTION_DOT":"0.00104366","RA_OF_ASC_NODE":"233.5574","PERIAPSIS":"333.742","REF_FRAME":"TEME","ECCENTRICITY":"0.00090000","REV_AT_EPOCH":"370","OBJECT_NAME":"STARLINK-3307","OBJECT_ID":"2021-125J","NORAD_CAT_ID":"50164","TIME_SYSTEM":"UTC","EPOCH":"2022-03-27T22:00:01.999584","RCS_SIZE":"LARGE","OBJECT_TYPE":"PAYLOAD","LAUNCH_DATE":"2021-12-18","FILE":"3377053","ARG_OF_PERICENTER":"282.7340","MEAN_MOTION_DDOT":"0.0000000000000","TLE_LINE1":"1 50164U 21125J   22086.91668981  .00104366  00000-0  63315-3 0  9994","TLE_LINE2":"2 50164  53.2112 233.5574 0009000 282.7340 171.4228 15.76704182  3702","MEAN_ANOMALY":"171.4228","SEMIMAJOR_AXIS":"6717.923","BSTAR":"0.00063315000000","DECAY_DATE":null,"EPHEMERIS_TYPE":"0","SITE":"AFWTR","APOAPSIS":"345.834"},{"CLASSIFICATION_TYPE":"U","REV_AT_EPOCH":"360","OBJECT_NAME":"STARLINK-3298","PERIAPSIS":"538.385","ECCENTRICITY":"0.00020420","RA_OF_ASC_NODE":"255.9760","REF_FRAME":"TEME","PERIOD":"95.439","MEAN_ELEMENT_THEORY":"SGP4","ELEMENT_SET_NO":"999","MEAN_MOTION_DOT":"0.00045476","CENTER_NAME":"EARTH","COUNTRY_CODE":"US","INCLINATION":"53.2176","GP_ID":"199864123","MEAN_MOTION":"15.08822894","ARG_OF_PERICENTER":"47.0566","FILE":"3377053","OBJECT_TYPE":"PAYLOAD","LAUNCH_DATE":"2021-12-18","TIME_SYSTEM":"UTC","NORAD_CAT_ID":"50165","RCS_SIZE":"LARGE","EPOCH":"2022-03-27T22:00:01.999584","OBJECT_ID":"2021-125K","APOAPSIS":"541.210","SITE":"AFWTR","EPHEMERIS_TYPE":"0","SEMIMAJOR_AXIS":"6917.933","TLE_LINE2":"2 50165  53.2176 255.9760 0002042  47.0566 318.1755 15.08822894  3609","TLE_LINE1":"1 50165U 21125K   22086.91668981  .00045476  00000-0  28584-2 0  9999","MEAN_ANOMALY":"318.1755","DECAY_DATE":null,"BSTAR":"0.00285840000000","MEAN_MOTION_DDOT":"0.0000000000000"},{"TLE_LINE1":"1 50166U 21125L   22086.91668981  .00000086  00000-0  23523-4 0  9998","TLE_LINE2":"2 50166  53.2124 245.9821 0001441  60.1844 180.0283 15.08841708  3637","MEAN_ANOMALY":"180.0283","SEMIMAJOR_AXIS":"6917.875","BSTAR":"0.00002352300000","DECAY_DATE":null,"MEAN_MOTION_DDOT":"0.0000000000000","APOAPSIS":"540.737","SITE":"AFWTR","EPHEMERIS_TYPE":"0","NORAD_CAT_ID":"50166","TIME_SYSTEM":"UTC","EPOCH":"2022-03-27T22:00:01.999584","RCS_SIZE":"LARGE","OBJECT_ID":"2021-125L","FILE":"3377053","ARG_OF_PERICENTER":"60.1844","OBJECT_TYPE":"PAYLOAD","LAUNCH_DATE":"2021-12-18","CENTER_NAME":"EARTH","COUNTRY_CODE":"US","INCLINATION":"53.2124","MEAN_MOTION":"15.08841708","GP_ID":"199864373","PERIAPSIS":"538.743","RA_OF_ASC_NODE":"245.9821","REF_FRAME":"TEME","ECCENTRICITY":"0.00014410","REV_AT_EPOCH":"363","OBJECT_NAME":"STARLINK-3305","ELEMENT_SET_NO":"999","MEAN_ELEMENT_THEORY":"SGP4","PERIOD":"95.437","MEAN_MOTION_DOT":"0.00000086","CLASSIFICATION_TYPE":"U"},{"LAUNCH_DATE":"2021-12-18","OBJECT_TYPE":"PAYLOAD","FILE":"3377053","ARG_OF_PERICENTER":"40.2155","OBJECT_ID":"2021-125M","RCS_SIZE":"LARGE","EPOCH":"2022-03-27T22:00:01.999584","TIME_SYSTEM":"UTC","NORAD_CAT_ID":"50167","EPHEMERIS_TYPE":"0","SITE":"AFWTR","APOAPSIS":"541.133","MEAN_MOTION_DDOT":"0.0000000000000","DECAY_DATE":null,"BSTAR":"0.00276710000000","SEMIMAJOR_AXIS":"6917.920","TLE_LINE1":"1 50167U 21125M   22086.91668981  .00044011  00000-0  27671-2 0  9991","TLE_LINE2":"2 50167  53.2157 255.9692 0001949  40.2155   5.0108 15.08827191  3607","MEAN_ANOMALY":"5.0108","CLASSIFICATION_TYPE":"U","MEAN_MOTION_DOT":"0.00044011","MEAN_ELEMENT_THEORY":"SGP4","PERIOD":"95.438","ELEMENT_SET_NO":"999","REV_AT_EPOCH":"360","OBJECT_NAME":"STARLINK-3271","RA_OF_ASC_NODE":"255.9692","PERIAPSIS":"538.436","REF_FRAME":"TEME","ECCENTRICITY":"0.00019490","GP_ID":"199865624","MEAN_MOTION":"15.08827191","INCLINATION":"53.2157","COUNTRY_CODE":"US","CENTER_NAME":"EARTH"},{"LAUNCH_DATE":"2021-12-18","OBJECT_TYPE":"PAYLOAD","FILE":"3377053","ARG_OF_PERICENTER":"58.5976","OBJECT_ID":"2021-125N","RCS_SIZE":"LARGE","EPOCH":"2022-03-27T22:00:01.999584","TIME_SYSTEM":"UTC","NORAD_CAT_ID":"50168","EPHEMERIS_TYPE":"0","APOAPSIS":"540.861","SITE":"AFWTR","MEAN_MOTION_DDOT":"0.0000000000000","DECAY_DATE":null,"BSTAR":"0.00003531800000","SEMIMAJOR_AXIS":"6917.869","TLE_LINE2":"2 50168  53.2125 245.9819 0001630  58.5976 201.6172 15.08843832  3620","MEAN_ANOMALY":"201.6172","TLE_LINE1":"1 50168U 21125N   22086.91668981  .00000274  00000-0  35318-4 0  9994","CLASSIFICATION_TYPE":"U","MEAN_MOTION_DOT":"0.00000274","PERIOD":"95.437","MEAN_ELEMENT_THEORY":"SGP4","ELEMENT_SET_NO":"999","REV_AT_EPOCH":"362","OBJECT_NAME":"STARLINK-3296","REF_FRAME":"TEME","PERIAPSIS":"538.606","RA_OF_ASC_NODE":"245.9819","ECCENTRICITY":"0.00016300","GP_ID":"199865861","MEAN_MOTION":"15.08843832","INCLINATION":"53.2125","COUNTRY_CODE":"US","CENTER_NAME":"EARTH"}];
